start=new Date('2021-09-18T00:00:00.000Z').valueOf();
sats=[{"MEAN_ELEMENT_THEORY":"SGP4","PERIAPSIS":"546.648","REV_AT_EPOCH":"5041","ECCENTRICITY":"0.00008080","MEAN_ANOMALY":"189.0432","ELEMENT_SET_NO":"999","MEAN_MOTION_DDOT":"0.0000000000000","EPHEMERIS_TYPE":"0","SEMIMAJOR_AXIS":"6925.342","ARG_OF_PERICENTER":"171.0571","RA_OF_ASC_NODE":"96.3269","TIME_SYSTEM":"UTC","OBJECT_NAME":"STARLINK-1910","EPOCH":"2021-09-17T19:47:04.030944","SITE":"AFETR","TLE_LINE2":"2 46748  53.0545  96.3269 0000808 171.0571 189.0432 15.06402059 50415","REF_FRAME":"TEME","GP_ID":"184913322","CENTER_NAME":"EARTH","MEAN_MOTION":"15.06402059","CLASSIFICATION_TYPE":"U","COUNTRY_CODE":"US","TLE_LINE1":"1 46748U 20074K   21260.82435221  .00000904  00000-0  79586-4 0  9992","OBJECT_TYPE":"PAYLOAD","DECAY_DATE":null,"NORAD_CAT_ID":"46748","APOAPSIS":"547.767","INCLINATION":"53.0545","RCS_SIZE":"LARGE","PERIOD":"95.592","MEAN_MOTION_DOT":"0.00000904","LAUNCH_DATE":"2020-10-24","FILE":"3118116","BSTAR":"0.00007958600000","OBJECT_ID":"2020-074K"},{"MEAN_MOTION_DOT":"-0.00000766","LAUNCH_DATE":"2020-10-24","BSTAR":"-0.00003250500000","FILE":"3118116","OBJECT_ID":"2020-074L","APOAPSIS":"548.639","INCLINATION":"53.0543","PERIOD":"95.593","RCS_SIZE":"LARGE","TLE_LINE1":"1 46749U 20074L   21260.83173411 -.00000766  00000-0 -32505-4 0  9992","OBJECT_TYPE":"PAYLOAD","DECAY_DATE":null,"NORAD_CAT_ID":"46749","MEAN_MOTION":"15.06391470","CLASSIFICATION_TYPE":"U","COUNTRY_CODE":"US","SITE":"AFETR","TLE_LINE2":"2 46749  53.0543  96.2881 0002021  85.6260 274.4959 15.06391470 50414","REF_FRAME":"TEME","GP_ID":"184912070","CENTER_NAME":"EARTH","ARG_OF_PERICENTER":"85.6260","TIME_SYSTEM":"UTC","RA_OF_ASC_NODE":"96.2881","OBJECT_NAME":"STARLINK-1911","EPOCH":"2021-09-17T19:57:41.827104","EPHEMERIS_TYPE":"0","MEAN_MOTION_DDOT":"0.0000000000000","SEMIMAJOR_AXIS":"6925.375","MEAN_ELEMENT_THEORY":"SGP4","PERIAPSIS":"545.840","REV_AT_EPOCH":"5041","ECCENTRICITY":"0.00020210","MEAN_ANOMALY":"274.4959","ELEMENT_SET_NO":"999"},{"CLASSIFICATION_TYPE":"U","MEAN_MOTION":"15.06393088","COUNTRY_CODE":"US","DECAY_DATE":null,"NORAD_CAT_ID":"46751","TLE_LINE1":"1 46751U 20074N   21260.82804850  .00000576  00000-0  57570-4 0  9998","OBJECT_TYPE":"PAYLOAD","APOAPSIS":"548.635","PERIOD":"95.593","RCS_SIZE":"LARGE","INCLINATION":"53.0539","MEAN_MOTION_DOT":"0.00000576","FILE":"3118116","BSTAR":"0.00005757000000","OBJECT_ID":"2020-074N","LAUNCH_DATE":"2020-10-24","REV_AT_EPOCH":"5041","MEAN_ELEMENT_THEORY":"SGP4","PERIAPSIS":"545.834","ELEMENT_SET_NO":"999","MEAN_ANOMALY":"279.1957","ECCENTRICITY":"0.00020220","MEAN_MOTION_DDOT":"0.0000000000000","EPHEMERIS_TYPE":"0","SEMIMAJOR_AXIS":"6925.370","ARG_OF_PERICENTER":"80.9260","OBJECT_NAME":"STARLINK-1920","EPOCH":"2021-09-17T19:52:23.390400","TIME_SYSTEM":"UTC","RA_OF_ASC_NODE":"96.3155","TLE_LINE2":"2 46751  53.0539  96.3155 0002022  80.9260 279.1957 15.06393088 50413","REF_FRAME":"TEME","SITE":"AFETR","GP_ID":"184912320","CENTER_NAME":"EARTH"},{"LAUNCH_DATE":"2020-10-24","BSTAR":"0.00008315300000","FILE":"3118116","OBJECT_ID":"2020-074P","MEAN_MOTION_DOT":"0.00000957","INCLINATION":"53.0553","PERIOD":"95.592","RCS_SIZE":"LARGE","APOAPSIS":"548.146","OBJECT_TYPE":"PAYLOAD","TLE_LINE1":"1 46752U 20074P   21260.83909572  .00000957  00000-0  83153-4 0  9996","NORAD_CAT_ID":"46752","DECAY_DATE":null,"COUNTRY_CODE":"US","MEAN_MOTION":"15.06402276","CLASSIFICATION_TYPE":"U","CENTER_NAME":"EARTH","GP_ID":"184912572","SITE":"AFETR","REF_FRAME":"TEME","TLE_LINE2":"2 46752  53.0553  96.2694 0001356 163.7449 196.3584 15.06402276 50411","RA_OF_ASC_NODE":"96.2694","TIME_SYSTEM":"UTC","EPOCH":"2021-09-17T20:08:17.870208","OBJECT_NAME":"STARLINK-1921","ARG_OF_PERICENTER":"163.7449","SEMIMAJOR_AXIS":"6925.342","EPHEMERIS_TYPE":"0","MEAN_MOTION_DDOT":"0.0000000000000","ECCENTRICITY":"0.00013560","MEAN_ANOMALY":"196.3584","ELEMENT_SET_NO":"999","PERIAPSIS":"546.268","MEAN_ELEMENT_THEORY":"SGP4","REV_AT_EPOCH":"5041"},{"COUNTRY_CODE":"US","MEAN_MOTION":"15.06397063","CLASSIFICATION_TYPE":"U","TLE_LINE1":"1 46753U 20074Q   21260.80592534  .00000404  00000-0  46070-4 0  9994","OBJECT_TYPE":"PAYLOAD","DECAY_DATE":null,"NORAD_CAT_ID":"46753","INCLINATION":"53.0516","PERIOD":"95.592","RCS_SIZE":"LARGE","APOAPSIS":"548.912","LAUNCH_DATE":"2020-10-24","FILE":"3118116","OBJECT_ID":"2020-074Q","BSTAR":"0.00004607000000","MEAN_MOTION_DOT":"0.00000404","ECCENTRICITY":"0.00024400","MEAN_ANOMALY":"271.9817","ELEMENT_SET_NO":"999","MEAN_ELEMENT_THEORY":"SGP4","PERIAPSIS":"545.533","REV_AT_EPOCH":"5041","SEMIMAJOR_AXIS":"6925.358","MEAN_MOTION_DDOT":"0.0000000000000","EPHEMERIS_TYPE":"0","RA_OF_ASC_NODE":"96.4056","TIME_SYSTEM":"UTC","OBJECT_NAME":"STARLINK-1922","EPOCH":"2021-09-17T19:20:31.949376","ARG_OF_PERICENTER":"88.1452","GP_ID":"184912823","CENTER_NAME":"EARTH","SITE":"AFETR","TLE_LINE2":"2 46753  53.0516  96.4056 0002440  88.1452 271.9817 15.06397063 50410","REF_FRAME":"TEME"},{"MEAN_MOTION_DDOT":"0.0000000000000","EPHEMERIS_TYPE":"0","SEMIMAJOR_AXIS":"6925.373","PERIAPSIS":"545.978","MEAN_ELEMENT_THEORY":"SGP4","REV_AT_EPOCH":"5041","MEAN_ANOMALY":"278.8466","ECCENTRICITY":"0.00018200","ELEMENT_SET_NO":"999","SITE":"AFETR","REF_FRAME":"TEME","TLE_LINE2":"2 46754  53.0535  96.3794 0001820  81.2729 278.8466 15.06391924 50418","CENTER_NAME":"EARTH","GP_ID":"184911571","ARG_OF_PERICENTER":"81.2729","RA_OF_ASC_NODE":"96.3794","TIME_SYSTEM":"UTC","EPOCH":"2021-09-17T19:31:09.312672","OBJECT_NAME":"STARLINK-1923","OBJECT_TYPE":"PAYLOAD","TLE_LINE1":"1 46754U 20074R   21260.81330223 -.00000705  00000-0 -28448-4 0  9996","NORAD_CAT_ID":"46754","DECAY_DATE":null,"MEAN_MOTION":"15.06391924","CLASSIFICATION_TYPE":"U","COUNTRY_CODE":"US","MEAN_MOTION_DOT":"-0.00000705","LAUNCH_DATE":"2020-10-24","FILE":"3118116","OBJECT_ID":"2020-074R","BSTAR":"-0.00002844800000","APOAPSIS":"548.499","INCLINATION":"53.0535","RCS_SIZE":"LARGE","PERIOD":"95.593"},{"SITE":"AFETR","TLE_LINE2":"2 46755  53.0575 101.3563 0001985  92.2057 267.9159 15.06400458 50345","REF_FRAME":"TEME","GP_ID":"184911821","CENTER_NAME":"EARTH","ARG_OF_PERICENTER":"92.2057","RA_OF_ASC_NODE":"101.3563","TIME_SYSTEM":"UTC","OBJECT_NAME":"STARLINK-1924","EPOCH":"2021-09-17T19:38:27.119616","MEAN_MOTION_DDOT":"0.0000000000000","EPHEMERIS_TYPE":"0","SEMIMAJOR_AXIS":"6925.347","MEAN_ELEMENT_THEORY":"SGP4","PERIAPSIS":"545.837","REV_AT_EPOCH":"5034","MEAN_ANOMALY":"267.9159","ECCENTRICITY":"0.00019850","ELEMENT_SET_NO":"999","MEAN_MOTION_DOT":"0.00000953","LAUNCH_DATE":"2020-10-24","FILE":"3118116","BSTAR":"0.00008285000000","OBJECT_ID":"2020-074S","APOAPSIS":"548.587","INCLINATION":"53.0575","PERIOD":"95.592","RCS_SIZE":"LARGE","TLE_LINE1":"1 46755U 20074S   21260.81836944  .00000953  00000-0  82850-4 0  9998","OBJECT_TYPE":"PAYLOAD","DECAY_DATE":null,"NORAD_CAT_ID":"46755","MEAN_MOTION":"15.06400458","CLASSIFICATION_TYPE":"U","COUNTRY_CODE":"US"},{"DECAY_DATE":null,"NORAD_CAT_ID":"46756","TLE_LINE1":"1 46756U 20074T   21260.67736364  .00000916  00000-0  80394-4 0  9998","OBJECT_TYPE":"PAYLOAD","CLASSIFICATION_TYPE":"U","MEAN_MOTION":"15.06392911","COUNTRY_CODE":"US","MEAN_MOTION_DOT":"0.00000916","BSTAR":"0.00008039400000","FILE":"3118116","OBJECT_ID":"2020-074T","LAUNCH_DATE":"2020-10-24","APOAPSIS":"548.487","PERIOD":"95.593","RCS_SIZE":"LARGE","INCLINATION":"53.0534","MEAN_MOTION_DDOT":"0.0000000000000","EPHEMERIS_TYPE":"0","SEMIMAJOR_AXIS":"6925.370","REV_AT_EPOCH":"5032","MEAN_ELEMENT_THEORY":"SGP4","PERIAPSIS":"545.983","ELEMENT_SET_NO":"999","ECCENTRICITY":"0.00018080","MEAN_ANOMALY":"269.0473","TLE_LINE2":"2 46756  53.0534 101.9777 0001808  91.0723 269.0473 15.06392911 50329","REF_FRAME":"TEME","SITE":"AFETR","GP_ID":"184913072","CENTER_NAME":"EARTH","ARG_OF_PERICENTER":"91.0723","OBJECT_NAME":"STARLINK-1925","EPOCH":"2021-09-17T16:15:24.218496","RA_OF_ASC_NODE":"101.9777","TIME_SYSTEM":"UTC"},{"COUNTRY_CODE":"US","MEAN_MOTION":"15.06389071","CLASSIFICATION_TYPE":"U","TLE_LINE1":"1 46757U 20074U   21260.83954916  .00001373  00000-0  11110-3 0  9999","OBJECT_TYPE":"PAYLOAD","DECAY_DATE":null,"NORAD_CAT_ID":"46757","INCLINATION":"53.0545","RCS_SIZE":"LARGE","PERIOD":"95.593","APOAPSIS":"548.574","LAUNCH_DATE":"2020-10-24","FILE":"3118116","OBJECT_ID":"2020-074U","BSTAR":"0.00011110000000","MEAN_MOTION_DOT":"0.00001373","ECCENTRICITY":"0.00019160","MEAN_ANOMALY":"274.9583","ELEMENT_SET_NO":"999","MEAN_ELEMENT_THEORY":"SGP4","PERIAPSIS":"545.920","REV_AT_EPOCH":"5034","SEMIMAJOR_AXIS":"6925.382","MEAN_MOTION_DDOT":"0.0000000000000","EPHEMERIS_TYPE":"0","RA_OF_ASC_NODE":"101.2668","TIME_SYSTEM":"UTC","OBJECT_NAME":"STARLINK-1926","EPOCH":"2021-09-17T20:08:57.047424","ARG_OF_PERICENTER":"85.1625","GP_ID":"184913323","CENTER_NAME":"EARTH","SITE":"AFETR","TLE_LINE2":"2 46757  53.0545 101.2668 0001916  85.1625 274.9583 15.06389071 50341","REF_FRAME":"TEME"},{"GP_ID":"184912071","CENTER_NAME":"EARTH","TLE_LINE2":"2 46758  53.0548 101.1433 0001965  81.3259 278.7952 15.06390380 50357","REF_FRAME":"TEME","SITE":"AFETR","OBJECT_NAME":"STARLINK-1928","EPOCH":"2021-09-17T20:47:27.758400","RA_OF_ASC_NODE":"101.1433","TIME_SYSTEM":"UTC","ARG_OF_PERICENTER":"81.3259","SEMIMAJOR_AXIS":"6925.378","EPHEMERIS_TYPE":"0","MEAN_MOTION_DDOT":"0.0000000000000","ELEMENT_SET_NO":"999","MEAN_ANOMALY":"278.7952","ECCENTRICITY":"0.00019650","REV_AT_EPOCH":"5035","MEAN_ELEMENT_THEORY":"SGP4","PERIAPSIS":"545.882","BSTAR":"0.00010447000000","FILE":"3118116","OBJECT_ID":"2020-074V","LAUNCH_DATE":"2020-10-24","MEAN_MOTION_DOT":"0.00001274","RCS_SIZE":"LARGE","PERIOD":"95.593","INCLINATION":"53.0548","APOAPSIS":"548.604","DECAY_DATE":null,"NORAD_CAT_ID":"46758","TLE_LINE1":"1 46758U 20074V   21260.86629350  .00001274  00000-0  10447-3 0  9996","OBJECT_TYPE":"PAYLOAD","COUNTRY_CODE":"US","CLASSIFICATION_TYPE":"U","MEAN_MOTION":"15.06390380"}];
